STARLINK-36723          
1 67915U 26036M   26082.50003471 -.01805945  00000+0 -50611-1 0  9990
2 67915  42.9994 167.3129 0001065 268.8323  91.7729 15.39099298  5869
STARLINK-36721          
1 67916U 26036N   26082.50003471 -.01804194  00000+0 -52608-1 0  9994
2 67916  42.9992 167.3180 0001263 262.4416  95.5536 15.37891685  5864
STARLINK-36722          
1 67917U 26036P   26082.50003471 -.01862883  00000+0 -52981-1 0  9998
2 67917  42.9992 167.0776 0001570 294.2440 161.0837 15.38753872  5863
STARLINK-36341          
1 67918U 26036Q   26082.50003471 -.01950878  00000+0 -42029-1 0  9993
2 67918  42.9999 168.0986 0001639 283.9813 117.6966 15.47073649  5867
STARLINK-36663          
1 67919U 26036R   26082.50003471 -.01851125  00000+0 -55163-1 0  9992
2 67919  42.9993 167.2937 0001408 260.7913 106.4373 15.37314137  5864
STARLINK-36375          
1 67920U 26036S   26082.50003471 -.02199803  00000+0 -71700-1 0  9998
2 67920  42.9986 167.7521 0001441 266.8150 274.0332 15.34586527  5867
STARLINK-36405          
1 67921U 26036T   26082.36032704 -.00278644  00000+0 -50006-2 0  9990
2 67921  42.9985 168.8648 0001759 253.3939 106.6728 15.50091528  5800
STARLINK-36383          
1 67922U 26036U   26082.52453873  .00252701  00000+0  11705-2 0  9990
2 67922  42.9997 164.8299 0001511 266.1759  93.8940 15.81969088  5868
STARLINK-36406          
1 67923U 26036V   26082.50914890  .00064048  00000+0  10860-2 0  9996
2 67923  43.0001 168.2700 0002655 248.5655 111.4922 15.50646024  5822
STARLINK-36714          
1 67924U 26036W   26082.50003471 -.01865696  00000+0 -52888-1 0  9997
2 67924  42.9990 167.5399 0001064 267.3022   0.1632 15.38861814  5862
STARLINK-36726          
1 67925U 26036X   26081.97184647  .00080825  00000+0  13689-2 0  9990
2 67925  42.9993 171.1089 0001257 246.0777 113.9952 15.50588141  5746
STARLINK-36758          
1 67926U 26036Y   26082.50003471 -.01917905  00000+0 -46412-1 0  9996
2 67926  42.9996 167.5953 0000857 297.2332 307.9701 15.43663210  5862
