CCSDS_OMM_VERS = 2.0
CREATION_DATE  = 
ORIGINATOR     = 

OBJECT_NAME    = STARLINK-36723
OBJECT_ID      = 2026-036M
CENTER_NAME    = EARTH
REF_FRAME      = TEME
TIME_SYSTEM    = UTC
MEAN_ELEMENT_THEORY = SGP/SGP4

EPOCH          = 2026-03-23T12:00:02.998944
MEAN_MOTION    = 15.39099298
ECCENTRICITY   = .0001065
INCLINATION    = 42.9994
RA_OF_ASC_NODE = 167.3129
ARG_OF_PERICENTER = 268.8323
MEAN_ANOMALY   = 91.7729

EPHEMERIS_TYPE = 0
CLASSIFICATION_TYPE = U
NORAD_CAT_ID   = 67915
ELEMENT_SET_NO = 999
REV_AT_EPOCH   = 586
BSTAR          = -.50611E-1
MEAN_MOTION_DOT = -.1805945E-1
MEAN_MOTION_DDOT = 0

CCSDS_OMM_VERS = 2.0
CREATION_DATE  = 
ORIGINATOR     = 

OBJECT_NAME    = STARLINK-36721
OBJECT_ID      = 2026-036N
CENTER_NAME    = EARTH
REF_FRAME      = TEME
TIME_SYSTEM    = UTC
MEAN_ELEMENT_THEORY = SGP/SGP4

EPOCH          = 2026-03-23T12:00:02.998944
MEAN_MOTION    = 15.37891685
ECCENTRICITY   = .0001263
INCLINATION    = 42.9992
RA_OF_ASC_NODE = 167.3180
ARG_OF_PERICENTER = 262.4416
MEAN_ANOMALY   = 95.5536

EPHEMERIS_TYPE = 0
CLASSIFICATION_TYPE = U
NORAD_CAT_ID   = 67916
ELEMENT_SET_NO = 999
REV_AT_EPOCH   = 586
BSTAR          = -.52608E-1
MEAN_MOTION_DOT = -.1804194E-1
MEAN_MOTION_DDOT = 0

CCSDS_OMM_VERS = 2.0
CREATION_DATE  = 
ORIGINATOR     = 

OBJECT_NAME    = STARLINK-36722
OBJECT_ID      = 2026-036P
CENTER_NAME    = EARTH
REF_FRAME      = TEME
TIME_SYSTEM    = UTC
MEAN_ELEMENT_THEORY = SGP/SGP4

EPOCH          = 2026-03-23T12:00:02.998944
MEAN_MOTION    = 15.38753872
ECCENTRICITY   = .000157
INCLINATION    = 42.9992
RA_OF_ASC_NODE = 167.0776
ARG_OF_PERICENTER = 294.2440
MEAN_ANOMALY   = 161.0837

EPHEMERIS_TYPE = 0
CLASSIFICATION_TYPE = U
NORAD_CAT_ID   = 67917
ELEMENT_SET_NO = 999
REV_AT_EPOCH   = 586
BSTAR          = -.52981E-1
MEAN_MOTION_DOT = -.1862883E-1
MEAN_MOTION_DDOT = 0

CCSDS_OMM_VERS = 2.0
CREATION_DATE  = 
ORIGINATOR     = 

OBJECT_NAME    = STARLINK-36341
OBJECT_ID      = 2026-036Q
CENTER_NAME    = EARTH
REF_FRAME      = TEME
TIME_SYSTEM    = UTC
MEAN_ELEMENT_THEORY = SGP/SGP4

EPOCH          = 2026-03-23T12:00:02.998944
MEAN_MOTION    = 15.47073649
ECCENTRICITY   = .0001639
INCLINATION    = 42.9999
RA_OF_ASC_NODE = 168.0986
ARG_OF_PERICENTER = 283.9813
MEAN_ANOMALY   = 117.6966

EPHEMERIS_TYPE = 0
CLASSIFICATION_TYPE = U
NORAD_CAT_ID   = 67918
ELEMENT_SET_NO = 999
REV_AT_EPOCH   = 586
BSTAR          = -.42029E-1
MEAN_MOTION_DOT = -.1950878E-1
MEAN_MOTION_DDOT = 0

CCSDS_OMM_VERS = 2.0
CREATION_DATE  = 
ORIGINATOR     = 

OBJECT_NAME    = STARLINK-36663
OBJECT_ID      = 2026-036R
CENTER_NAME    = EARTH
REF_FRAME      = TEME
TIME_SYSTEM    = UTC
MEAN_ELEMENT_THEORY = SGP/SGP4

EPOCH          = 2026-03-23T12:00:02.998944
MEAN_MOTION    = 15.37314137
ECCENTRICITY   = .0001408
INCLINATION    = 42.9993
RA_OF_ASC_NODE = 167.2937
ARG_OF_PERICENTER = 260.7913
MEAN_ANOMALY   = 106.4373

EPHEMERIS_TYPE = 0
CLASSIFICATION_TYPE = U
NORAD_CAT_ID   = 67919
ELEMENT_SET_NO = 999
REV_AT_EPOCH   = 586
BSTAR          = -.55163E-1
MEAN_MOTION_DOT = -.1851125E-1
MEAN_MOTION_DDOT = 0

CCSDS_OMM_VERS = 2.0
CREATION_DATE  = 
ORIGINATOR     = 

OBJECT_NAME    = STARLINK-36375
OBJECT_ID      = 2026-036S
CENTER_NAME    = EARTH
REF_FRAME      = TEME
TIME_SYSTEM    = UTC
MEAN_ELEMENT_THEORY = SGP/SGP4

EPOCH          = 2026-03-23T12:00:02.998944
MEAN_MOTION    = 15.34586527
ECCENTRICITY   = .0001441
INCLINATION    = 42.9986
RA_OF_ASC_NODE = 167.7521
ARG_OF_PERICENTER = 266.8150
MEAN_ANOMALY   = 274.0332

EPHEMERIS_TYPE = 0
CLASSIFICATION_TYPE = U
NORAD_CAT_ID   = 67920
ELEMENT_SET_NO = 999
REV_AT_EPOCH   = 586
BSTAR          = -.717E-1
MEAN_MOTION_DOT = -.2199803E-1
MEAN_MOTION_DDOT = 0

CCSDS_OMM_VERS = 2.0
CREATION_DATE  = 
ORIGINATOR     = 

OBJECT_NAME    = STARLINK-36405
OBJECT_ID      = 2026-036T
CENTER_NAME    = EARTH
REF_FRAME      = TEME
TIME_SYSTEM    = UTC
MEAN_ELEMENT_THEORY = SGP/SGP4

EPOCH          = 2026-03-23T08:38:52.256256
MEAN_MOTION    = 15.50091528
ECCENTRICITY   = .0001759
INCLINATION    = 42.9985
RA_OF_ASC_NODE = 168.8648
ARG_OF_PERICENTER = 253.3939
MEAN_ANOMALY   = 106.6728

EPHEMERIS_TYPE = 0
CLASSIFICATION_TYPE = U
NORAD_CAT_ID   = 67921
ELEMENT_SET_NO = 999
REV_AT_EPOCH   = 580
BSTAR          = -.50006E-2
MEAN_MOTION_DOT = -.278644E-2
MEAN_MOTION_DDOT = 0

CCSDS_OMM_VERS = 2.0
CREATION_DATE  = 
ORIGINATOR     = 

OBJECT_NAME    = STARLINK-36383
OBJECT_ID      = 2026-036U
CENTER_NAME    = EARTH
REF_FRAME      = TEME
TIME_SYSTEM    = UTC
MEAN_ELEMENT_THEORY = SGP/SGP4

EPOCH          = 2026-03-23T12:35:20.146272
MEAN_MOTION    = 15.81969088
ECCENTRICITY   = .0001511
INCLINATION    = 42.9997
RA_OF_ASC_NODE = 164.8299
ARG_OF_PERICENTER = 266.1759
MEAN_ANOMALY   = 93.8940

EPHEMERIS_TYPE = 0
CLASSIFICATION_TYPE = U
NORAD_CAT_ID   = 67922
ELEMENT_SET_NO = 999
REV_AT_EPOCH   = 586
BSTAR          = .11705E-2
MEAN_MOTION_DOT = .252701E-2
MEAN_MOTION_DDOT = 0

CCSDS_OMM_VERS = 2.0
CREATION_DATE  = 
ORIGINATOR     = 

OBJECT_NAME    = STARLINK-36406
OBJECT_ID      = 2026-036V
CENTER_NAME    = EARTH
REF_FRAME      = TEME
TIME_SYSTEM    = UTC
MEAN_ELEMENT_THEORY = SGP/SGP4

EPOCH          = 2026-03-23T12:13:10.464960
MEAN_MOTION    = 15.50646024
ECCENTRICITY   = .0002655
INCLINATION    = 43.0001
RA_OF_ASC_NODE = 168.2700
ARG_OF_PERICENTER = 248.5655
MEAN_ANOMALY   = 111.4922

EPHEMERIS_TYPE = 0
CLASSIFICATION_TYPE = U
NORAD_CAT_ID   = 67923
ELEMENT_SET_NO = 999
REV_AT_EPOCH   = 582
BSTAR          = .1086E-2
MEAN_MOTION_DOT = .64048E-3
MEAN_MOTION_DDOT = 0

CCSDS_OMM_VERS = 2.0
CREATION_DATE  = 
ORIGINATOR     = 

OBJECT_NAME    = STARLINK-36714
OBJECT_ID      = 2026-036W
CENTER_NAME    = EARTH
REF_FRAME      = TEME
TIME_SYSTEM    = UTC
MEAN_ELEMENT_THEORY = SGP/SGP4

EPOCH          = 2026-03-23T12:00:02.998944
MEAN_MOTION    = 15.38861814
ECCENTRICITY   = .0001064
INCLINATION    = 42.9990
RA_OF_ASC_NODE = 167.5399
ARG_OF_PERICENTER = 267.3022
MEAN_ANOMALY   = 0.1632

EPHEMERIS_TYPE = 0
CLASSIFICATION_TYPE = U
NORAD_CAT_ID   = 67924
ELEMENT_SET_NO = 999
REV_AT_EPOCH   = 586
BSTAR          = -.52888E-1
MEAN_MOTION_DOT = -.1865696E-1
MEAN_MOTION_DDOT = 0

CCSDS_OMM_VERS = 2.0
CREATION_DATE  = 
ORIGINATOR     = 

OBJECT_NAME    = STARLINK-36726
OBJECT_ID      = 2026-036X
CENTER_NAME    = EARTH
REF_FRAME      = TEME
TIME_SYSTEM    = UTC
MEAN_ELEMENT_THEORY = SGP/SGP4

EPOCH          = 2026-03-22T23:19:27.535008
MEAN_MOTION    = 15.50588141
ECCENTRICITY   = .00012571
INCLINATION    = 42.9993
RA_OF_ASC_NODE = 171.1089
ARG_OF_PERICENTER = 246.0777
MEAN_ANOMALY   = 113.9952

EPHEMERIS_TYPE = 0
CLASSIFICATION_TYPE = U
NORAD_CAT_ID   = 67925
ELEMENT_SET_NO = 999
REV_AT_EPOCH   = 574
BSTAR          = .13689004E-2
MEAN_MOTION_DOT = .80825E-3
MEAN_MOTION_DDOT = 0

CCSDS_OMM_VERS = 2.0
CREATION_DATE  = 
ORIGINATOR     = 

OBJECT_NAME    = STARLINK-36758
OBJECT_ID      = 2026-036Y
CENTER_NAME    = EARTH
REF_FRAME      = TEME
TIME_SYSTEM    = UTC
MEAN_ELEMENT_THEORY = SGP/SGP4

EPOCH          = 2026-03-23T12:00:02.998944
MEAN_MOTION    = 15.43663210
ECCENTRICITY   = .0000857
INCLINATION    = 42.9996
RA_OF_ASC_NODE = 167.5953
ARG_OF_PERICENTER = 297.2332
MEAN_ANOMALY   = 307.9701

EPHEMERIS_TYPE = 0
CLASSIFICATION_TYPE = U
NORAD_CAT_ID   = 67926
ELEMENT_SET_NO = 999
REV_AT_EPOCH   = 586
BSTAR          = -.46412E-1
MEAN_MOTION_DOT = -.1917905E-1
MEAN_MOTION_DDOT = 0

